H1 CPF  1  DLR 2022 12 06 13  8402 technosat            
H2  1704205 6203    42829 2022 12 06 00 00 00 2022 12 13 00 00 00    60 1 1  0 0 0
H9
10 0 59921  36000.000000  0      -4755819.518       4520127.142      -2347512.808
10 0 59921  36060.000000  0      -4574395.533       4471853.162      -2765912.833
10 0 59921  36120.000000  0      -4374182.560       4403040.206      -3172556.906
10 0 59921  36180.000000  0      -4156218.083       4313832.410      -3565726.673
10 0 59921  36240.000000  0      -3921611.867       4204469.255      -3943763.897
10 0 59921  36300.000000  0      -3671540.110       4075284.860      -4305077.383
10 0 59921  36360.000000  0      -3407239.265       3926706.722      -4648149.507
10 0 59921  36420.000000  0      -3129999.788       3759254.070      -4971542.272
10 0 59921  36480.000000  0      -2841159.750       3573535.862      -5273903.072
10 0 59921  36540.000000  0      -2542098.265       3370248.361      -5553970.080
10 0 59921  36600.000000  0      -2234228.783       3150172.294      -5810577.196
10 0 59921  36660.000000  0      -1918992.326       2914169.607      -6042658.540
10 0 59921  36720.000000  0      -1597850.693       2663179.860      -6249252.464
10 0 59921  36780.000000  0      -1272279.694       2398216.290      -6429505.075
10 0 59921  36840.000000  0       -943762.461       2120361.637      -6582673.298
10 0 59921  36900.000000  0       -613782.801       1830763.691      -6708127.597
10 0 59921  36960.000000  0       -283818.597       1530630.456      -6805354.162
10 0 59921  37020.000000  0         44664.560       1221225.151      -6873956.625
10 0 59921  37080.000000  0        370219.659        903861.008      -6913657.482
10 0 59921  37140.000000  0        691424.510        579895.808      -6924299.071
10 0 59921  37200.000000  0       1006887.826        250726.153      -6905844.025
10 0 59921  37260.000000  0       1315255.046        -82218.435      -6858375.216
10 0 59921  37320.000000  0       1615213.931       -417481.537      -6782095.298
10 0 59921  37380.000000  0       1905499.925       -753585.979      -6677325.866
10 0 59921  37440.000000  0       2184901.326      -1089040.148      -6544506.262
10 0 59921  37500.000000  0       2452264.265      -1422344.436      -6384191.827
10 0 59921  37560.000000  0       2706497.316      -1751997.685      -6197051.746
10 0 59921  37620.000000  0       2946575.858      -2076503.729      -5983866.600
10 0 59921  37680.000000  0       3171546.220      -2394378.077      -5745525.507
10 0 59921  37740.000000  0       3380529.555      -2704154.678      -5483022.741
10 0 59921  37800.000000  0       3572725.330      -3004392.650      -5197453.826
10 0 59921  37860.000000  0       3747414.403      -3293682.916      -4890011.219
10 0 59921  37920.000000  0       3903961.741      -3570654.743      -4561979.650
10 0 59921  37980.000000  0       4041818.797      -3833982.194      -4214731.122
10 0 59921  38040.000000  0       4160525.554      -4082390.510      -3849719.534
10 0 59921  38100.000000  0       4259712.175      -4314662.362      -3468474.894
10 0 59921  38160.000000  0       4339100.259      -4529643.897      -3072597.144
10 0 59921  38220.000000  0       4398503.685      -4726250.557      -2663749.644
10 0 59921  38280.000000  0       4437829.020      -4903472.681      -2243652.350
10 0 59921  38340.000000  0       4457075.447      -5060380.854      -1814074.646
10 0 59921  38400.000000  0       4456334.248      -5196130.836      -1376827.918
10 0 59921  38460.000000  0       4435787.896      -5309968.151       -933757.918
10 0 59921  38520.000000  0       4395708.680      -5401232.304       -486736.892
10 0 59921  38580.000000  0       4336456.874      -5469360.549        -37655.585
10 0 59921  38640.000000  0       4258478.510      -5513891.255        411584.844
10 0 59921  38700.000000  0       4162302.743      -5534466.818        859081.047
10 0 59921  38760.000000  0       4048538.805      -5530836.026       1302935.781
10 0 59921  38820.000000  0       3917872.536      -5502855.875       1741266.178
10 0 59921  38880.000000  0       3771062.513      -5450492.883       2172211.870
10 0 59921  38940.000000  0       3608935.890      -5373823.954       2593943.013
10 0 59921  39000.000000  0       3432383.945      -5273036.706       3004668.235
10 0 59921  39060.000000  0       3242357.306      -5148429.215       3402642.441
10 0 59921  39120.000000  0       3039860.900      -5000409.194       3786174.318
10 0 59921  39180.000000  0       2825948.744      -4829492.712       4153633.606
10 0 59921  39240.000000  0       2601718.501      -4636302.376       4503458.145
10 0 59921  39300.000000  0       2368305.832      -4421564.964       4834160.574
10 0 59921  39360.000000  0       2126878.658      -4186108.599       5144334.609
10 0 59921  39420.000000  0       1878631.347      -3930859.485       5432661.070
10 0 59921  39480.000000  0       1624778.733      -3656838.084       5697913.509
10 0 59921  39540.000000  0       1366550.133      -3365154.870       5938963.332
10 0 59921  39600.000000  0       1105183.359      -3057005.718       6154784.482
10 0 59921  39660.000000  0        841918.772      -2733666.916       6344457.696
10 0 59921  39720.000000  0        577993.371      -2396489.787       6507174.341
10 0 59921  39780.000000  0        314634.969      -2046894.954       6642239.713
10 0 59921  39840.000000  0         53056.526      -1686366.382       6749075.927
10 0 59921  39900.000000  0       -205549.445      -1316445.050       6827224.450
10 0 59921  39960.000000  0       -460016.328       -938722.261       6876348.038
10 0 59921  40020.000000  0       -709208.653       -554832.795       6896232.170
10 0 59921  40080.000000  0       -952027.213       -166447.818       6886786.039
10 0 59921  40140.000000  0      -1187413.960        224732.407       6848043.014
10 0 59921  40200.000000  0      -1414356.651        616986.000       6780160.605
10 0 59921  40260.000000  0      -1631893.243       1008577.053       6683419.928
10 0 59921  40320.000000  0      -1839116.055       1397763.337       6558224.703
10 0 59921  40380.000000  0      -2035175.661       1782804.110       6405099.714
10 0 59921  40440.000000  0      -2219284.444       2161967.962       6224688.788
10 0 59921  40500.000000  0      -2390719.867       2533540.723       6017752.309
10 0 59921  40560.000000  0      -2548827.405       2895833.358       5785164.171
10 0 59921  40620.000000  0      -2693023.148       3247189.756       5527908.317
10 0 59921  40680.000000  0      -2822796.137       3585994.543       5247074.797
10 0 59921  40740.000000  0      -2937710.274       3910680.748       4943855.260
10 0 59921  40800.000000  0      -3037405.852       4219737.297       4619538.008
10 0 59921  40860.000000  0      -3121600.713       4511716.342       4275502.607
10 0 59921  40920.000000  0      -3190091.021       4785240.349       3913214.047
10 0 59921  40980.000000  0      -3242751.618       5039008.909       3534216.444
10 0 59921  41040.000000  0      -3279535.964       5271805.202       3140126.362
10 0 59921  41100.000000  0      -3300475.672       5482502.091       2732625.787
10 0 59921  41160.000000  0      -3305679.677       5670067.815       2313454.754
10 0 59921  41220.000000  0      -3295332.979       5833571.199       1884403.694
10 0 59921  41280.000000  0      -3269694.986       5972186.456       1447305.587
10 0 59921  41340.000000  0      -3229097.484       6085197.533       1004027.854
10 0 59921  41400.000000  0      -3173942.223       6172001.896        556464.044
10 0 59921  41460.000000  0      -3104698.147       6232113.747        106525.379
10 0 59921  41520.000000  0      -3021898.319       6265166.645       -343867.784
10 0 59921  41580.000000  0      -2926136.526       6270915.534       -792794.531
10 0 59921  41640.000000  0      -2818063.539       6249238.172      -1238342.008
10 0 59921  41700.000000  0      -2698383.061       6200135.867      -1678614.028
10 0 59921  41760.000000  0      -2567847.375       6123733.425      -2111739.413
10 0 59921  41820.000000  0      -2427252.850       6020278.649      -2535880.046
10 0 59921  41880.000000  0      -2277435.293       5890141.281      -2949238.768
10 0 59921  41940.000000  0      -2119265.152       5733811.392      -3350067.070
10 0 59921  42000.000000  0      -1953642.613       5551897.155      -3736672.565
10 0 59921  42060.000000  0      -1781492.587       5345121.990      -4107426.090
10 0 59921  42120.000000  0      -1603759.672       5114321.229      -4460768.405
10 0 59921  42180.000000  0      -1421403.099       4860438.345      -4795216.526
10 0 59921  42240.000000  0      -1235391.683       4584520.739      -5109369.709
10 0 59921  42300.000000  0      -1046698.791       4287715.069      -5401915.069
10 0 59921  42360.000000  0       -856297.352       3971262.136      -5671632.779
10 0 59921  42420.000000  0       -665154.939       3636491.375      -5917400.822
10 0 59921  42480.000000  0       -474228.962       3284814.969      -6138199.278
10 0 59921  42540.000000  0       -284461.993       2917721.627      -6333114.119
10 0 59921  42600.000000  0        -96777.277       2536770.146      -6501340.496
10 0 59921  42660.000000  0         87925.594       2143582.774      -6642185.653
10 0 59921  42720.000000  0        268774.811       1739838.301      -6755071.463
10 0 59921  42780.000000  0        444930.316       1327264.890      -6839536.476
10 0 59921  42840.000000  0        615587.572        907632.775      -6895237.444
10 0 59921  42900.000000  0        779981.095        482746.843      -6921950.483
10 0 59921  42960.000000  0        937387.751         54438.986      -6919571.798
10 0 59921  43020.000000  0       1087129.795       -375439.626      -6888117.881
10 0 59921  43080.000000  0       1228577.665       -805026.278      -6827725.272
10 0 59921  43140.000000  0       1361152.513      -1232454.508      -6738649.949
99
